SENTINEL-3A             
1 41335U 16011A   23285.20336318  .00000344  00000+0  16031-3 0  9995
2 41335  98.6263 350.5598 0001305  99.0006 261.1323 14.26740199398461
